{
    "links": {
        "self": "http://www.neowsapp.com/rest/v1/neo/3698567?api_key=iIulBulltgU6a56xZRHN4H3l9WmuAYTsLGpBGhQ2"
    },
    "id": "3698567",
    "neo_reference_id": "3698567",
    "name": "(2014 JT79)",
    "designation": "2014 JT79",
    "nasa_jpl_url": "http://ssd.jpl.nasa.gov/sbdb.cgi?sstr=3698567",
    "absolute_magnitude_h": 25.3,
    "estimated_diameter": {
        "kilometers": {
            "estimated_diameter_min": 0.0231502122,
            "estimated_diameter_max": 0.0517654482
        },
        "meters": {
            "estimated_diameter_min": 23.150212221,
            "estimated_diameter_max": 51.7654482198
        },
        "miles": {
            "estimated_diameter_min": 0.0143848705,
            "estimated_diameter_max": 0.0321655483
        },
        "feet": {
            "estimated_diameter_min": 75.9521422633,
            "estimated_diameter_max": 169.8341531374
        }
    },
    "is_potentially_hazardous_asteroid": false,
    "close_approach_data": [
        {
            "close_approach_date": "2014-04-14",
            "close_approach_date_full": "2014-Apr-14 17:23",
            "epoch_date_close_approach": 1397496180000,
            "relative_velocity": {
                "kilometers_per_second": "13.1499854129",
                "kilometers_per_hour": "47339.9474866106",
                "miles_per_hour": "29415.202370222"
            },
            "miss_distance": {
                "astronomical": "0.0344211631",
                "lunar": "13.3898324459",
                "kilometers": "5149332.682682597",
                "miles": "3199646.9594179586"
            },
            "orbiting_body": "Earth"
        }
    ],
    "orbital_data": {
        "orbit_id": "11",
        "orbit_determination_date": "2019-12-18 11:21:07",
        "first_observation_date": "2014-04-28",
        "last_observation_date": "2014-05-05",
        "data_arc_in_days": 7,
        "observations_used": 14,
        "orbit_uncertainty": "9",
        "minimum_orbit_intersection": ".00568495",
        "jupiter_tisserand_invariant": "3.670",
        "epoch_osculation": "2456779.5",
        "eccentricity": ".5876240970128218",
        "semi_major_axis": "1.940004257182822",
        "inclination": "1.774704872439131",
        "ascending_node_longitude": "252.4447630568723",
        "orbital_period": "986.9665894830031",
        "perihelion_distance": ".8000110073547362",
        "perihelion_argument": "251.4484333253651",
        "aphelion_distance": "3.079997507010908",
        "perihelion_time": "2456720.543002275280",
        "mean_anomaly": "21.50480006827497",
        "mean_motion": ".3647539884694341",
        "equinox": "J2000",
        "orbit_class": {
            "orbit_class_type": "APO",
            "orbit_class_description": "Near-Earth asteroid orbits which cross the Earth’s orbit similar to that of 1862 Apollo",
            "orbit_class_range": "a (semi-major axis) > 1.0 AU; q (perihelion) < 1.017 AU"
        }
    },
    "is_sentry_object": false
}